#dP2025  1  9 18  0  0.00000000      96 __u+U IGS20 EXT  IAC
## 2348 410400.00000000   900.00000000 60684 0.7500000000000
+   53   G01G02G03G04G05G06G07G08G09G10G11G12G13G14G15G16G17
+        G18G19G20G21G22G23G24G25G26G27G28G29G30G31G32R01R02
+        R03R04R05R07R08R09R11R12R14R15R16R17R18R19R20R21R22
+        R24R26  0  0  0  0  0  0  0  0  0  0  0  0  0  0  0
+          0  0  0  0  0  0  0  0  0  0  0  0  0  0  0  0  0
++         9  7  8  8  7  7  7  7  7  6  7  7  7  8  7  7  8
++         7  8  7  7  7  7  6  7  7  7  7  7  6  7  8  9  9
++         9 10  8  9  8  8  8  7  7  8  7  7  9 10 10  8  8
++         8  9  0  0  0  0  0  0  0  0  0  0  0  0  0  0  0
++         0  0  0  0  0  0  0  0  0  0  0  0  0  0  0  0  0
%c M  cc GPS ccc cccc cccc cccc cccc ccccc ccccc ccccc ccccc
%c cc cc ccc ccc cccc cccc cccc cccc ccccc ccccc ccccc ccccc
%f  0.0000000  0.000000000  0.00000000000  0.000000000000000
%f  0.0000000  0.000000000  0.00000000000  0.000000000000000
%i    0    0    0    0      0      0      0      0         0
%i    0    0    0    0      0      0      0      0         0
/* IAC                                ULTRA-RAPID PREDICTION
/* S/V CLOCKS ARE ALIGNED TO GNSS TIME                      
/* G:C1WC2W R:C1PC2P E:C1XC5X C:C2IC6I J:C1CC2S             
/* PCV:IGS20_2317 OL/AL:FES2004  NONE     YN ORB:CoN CLK:CoN
*  2025 01 09 18 30  0.00000000
PG01  10828.443850 -19027.611352 -15029.418726     34.685320
PG02  10957.188180 -20517.268176 -11985.950810   -271.835137
PG03   -286.479177 -15736.758349 -21577.481413    642.821943
PG04    909.323920 -26150.531109  -4029.946403    509.396960
PG05 -15137.370139   8623.234605  19895.009128   -198.540597
PG06 -21263.835920   2286.754962 -15759.824121   -106.731455
PG07  -5507.666152 -15119.008718  21616.844300    -13.665096
PG08   7253.055661 -20862.779308  14280.172277    457.433953
PG09  -6562.884746 -25284.322242   4514.001300    522.146442
PG10      0.000000      0.000000      0.000000   -269.833628
PG11 -23434.048406  11357.877130  -5018.494399   -752.082738
PG12  -3997.383242  15098.728705 -21778.455466   -563.491515
PG13 -13113.146816  13314.154921  18543.066067    692.940173
PG14 -23194.641159 -12952.787990   2635.734134    576.846103
PG15  -4099.619961  22196.053523  13365.184698    249.694730
PG16  20063.067656  -2603.406085  17080.445263    -81.960526
PG17 -12694.867953 -15073.890680 -17297.572757    481.786583
PG18   7170.133583  13178.437811  21939.368106   -658.423626
PG19 -14975.040227  -4790.233618 -21596.082918    584.219483
PG20 -23749.505141   2654.136861  11538.710229    367.203816
PG21  15669.201517 -19651.134310  -6177.195660    100.566476
PG22 -24093.687360  -9294.510567  -5074.391455    -91.405865
PG23  17238.740942  16100.300223  12479.343626    400.603100
PG24 -11546.167573  21265.979805 -10945.292911   -465.653983
PG25  10415.593603  17775.347832 -17267.257184    496.990028
PG26  25424.391976   2579.733494   7753.453462    -41.648393
PG27  13092.446596 -10323.929678  20262.953477    -33.263281
PG28  20396.523268   -826.219601 -17009.692184   -531.158377
PG29   4256.079606  25662.843210   4984.168531   -548.595200
PG30 -16365.412448  -6405.620438  20137.641999   -242.801606
PG31  23653.618321  -8017.346146  -9796.921795   -218.235340
PG32  14756.491185  10287.993706 -19380.208681   -544.598217
PR01 -12626.573614  -1487.135306  22118.144853    110.670921
PR02  -3483.738233  14730.373790  20600.282120    -38.601394
PR03   7847.506419  23264.522972   7086.914439    114.664051
PR04  14081.013657  18899.510500  -9751.535080    271.849068
PR05  13070.105563   4503.408017 -21431.153467    143.491240
PR07  -8036.539698 -23239.486608  -6633.977159     98.565771
PR08 -14388.440017 -18474.517553  10130.124761     -6.333896
PR09  14870.852323  -8890.006748  18700.242523    231.127896
PR11 -18772.166174  -8219.819848  15205.305357      0.454164
PR12 -25241.852897    281.254070  -3599.422480     49.418921
PR14   3297.767667  11202.429676 -22672.140098     27.569532
PR15  20038.071622   7782.512876 -13716.924540     72.353750
PR16  25250.027548   -265.517196   3483.285874     32.331960
PR17  -4698.350786  19722.304754  15468.616587    156.036645
PR18   6864.791877   8490.918648  23077.425231    181.090685
PR19  14885.719057  -4945.750161  20121.264463   -304.958695
PR20  15929.802710 -19773.165915   2204.380301   -124.352311
PR21   5851.412309 -20173.326065 -14484.159894   -166.773517
PR22  -7910.894126  -7686.241273 -22968.598052    -55.108110
PR24 -14782.367184  20713.886543  -1631.795486    -87.510525
PR26 -14123.768515 -19601.633704   8233.677695   -131.974420
*  2025 01 09 18 45  0.00000000
PG01  12269.252907 -19742.557863 -12841.660566     34.714554
PG02  12078.434392 -21224.866712  -9478.506121   -271.826949
PG03   1995.443739 -14827.283457 -22118.638957    642.828645
PG04   1215.278785 -25554.154459  -6816.596725    509.402260
PG05 -17205.277697   7791.341504  18527.924869   -198.541586
PG06 -19800.325930   1047.199814 -17662.322041   -106.755854
PG07  -3620.365906 -16495.660810  20942.451703    -13.664675
PG08   7798.306242 -19142.937006  16286.284449    457.441163
PG09  -6367.922792 -25687.422042   1683.477223    522.160039
PG10      0.000000      0.000000      0.000000   -269.848164
PG11 -22969.869980  10738.887085  -7761.497012   -752.082011
PG12  -6198.126535  14044.302802 -21966.569698   -563.493520
PG13 -13224.631624  11064.840543  19898.098532    692.941312
PG14 -22669.197096 -13030.876541   5394.649614    576.852623
PG15  -4857.840993  20609.597456  15427.031511    249.698759
PG16  21679.157041  -1607.636339  15202.846598    -81.952089
PG17 -12672.905741 -17030.476220 -15422.666463    481.771057
PG18   5165.981041  14639.464199  21553.007993   -658.422540
PG19 -15023.489545  -7185.549158 -20921.280928    584.223588
PG20 -24846.315895   2180.816788   9025.362973    367.203542
PG21  16341.427720 -19819.973669  -3327.633291    100.567575
PG22 -24378.697663  -9758.400931  -2243.990286    -91.407734
PG23  15748.440725  15689.382244  14751.565989    400.609871
PG24 -12532.474974  21776.978911  -8427.617938   -465.650491
PG25   8500.761195  17196.052235 -18839.954386    496.989521
PG26  26056.441959   3087.856951   5113.234853    -41.662038
PG27  13550.035678  -7928.290167  21053.568231    -33.262861
PG28  18923.966918    589.023135 -18643.977246   -531.167203
PG29   4042.901833  26091.646706   2144.769602   -548.592164
PG30 -14590.086461  -7905.121240  20934.939309   -242.794077
PG31  22802.507324  -7123.211236 -12230.193635   -218.234579
PG32  14962.131529  12452.529063 -17933.277886   -544.592077
PR01 -14001.843476  -3764.024930  20991.983665    110.672110
PR02  -4628.266331  12383.959961  21876.369614    -38.601160
PR03   7492.260863  22262.585163  10074.132073    114.664559
PR04  14708.612697  19724.750379  -6735.367639    271.850437
PR05  14323.799797   6737.544294 -19999.236995    143.491724
PR07  -7693.659972 -22274.125884  -9651.601567     98.566428
PR08 -15025.176995 -19333.885491   7139.414030     -6.333859
PR09  17052.750964  -8955.975601  16690.375884    231.129841
PR11 -16760.295224  -8078.184286  17463.320493      0.451792
PR12 -25494.242482    405.038372   -406.256502     49.419245
PR14    484.605883  11151.125323 -22932.091960     27.569580
PR15  18196.723020   7640.284510 -16146.489112     72.353435
PR16  25485.357251   -409.866133    277.374683     32.332193
PR17  -5505.001657  21284.271621  12916.813639    156.039751
PR18   5377.331437  10872.411997  22468.476109    181.092340
PR19  13344.323540  -2882.097855  21553.238751   -304.960186
PR20  15488.689482 -19508.316577   5407.488374   -124.352833
PR21   6588.889624 -21630.855761 -11822.624399   -166.776439
PR22  -6351.380708 -10031.051166 -22544.027199    -55.109960
PR24 -14446.457830  20450.866776  -4813.663384    -87.511956
PR26 -14661.192461 -20246.124731   5150.552306   -131.974123
EOF
